{"fetched_at":"2026-07-23T07:05:18.920Z","source":"https://celestrak.org/NORAD/elements/gp.php?GROUP=oneweb&FORMAT=JSON","constellation":"oneweb","records":[{"OBJECT_NAME":"ONEWEB-0588","OBJECT_ID":"2023-004P","EPOCH":"2026-07-22T18:29:03.868224","CLASSIFICATION_TYPE":"U","MEAN_MOTION":13.18686449,"ECCENTRICITY":0.00019841,"INCLINATION":87.9193,"RA_OF_ASC_NODE":328.3925,"ARG_OF_PERICENTER":84.1765,"MEAN_ANOMALY":275.9593,"EPHEMERIS_TYPE":0,"NORAD_CAT_ID":55153,"ELEMENT_SET_NO":999,"REV_AT_EPOCH":17438,"BSTAR":-0.000092575502,"MEAN_MOTION_DOT":-2.4e-7,"MEAN_MOTION_DDOT":0},{"OBJECT_NAME":"ONEWEB-0598","OBJECT_ID":"2023-004Q","EPOCH":"2026-07-22T20:48:41.744448","CLASSIFICATION_TYPE":"U","MEAN_MOTION":13.11415605,"ECCENTRICITY":0.00025286,"INCLINATION":87.8889,"RA_OF_ASC_NODE":13.9637,"ARG_OF_PERICENTER":94.5935,"MEAN_ANOMALY":265.5482,"EPHEMERIS_TYPE":0,"NORAD_CAT_ID":55154,"ELEMENT_SET_NO":999,"REV_AT_EPOCH":17057,"BSTAR":-0.00008833204,"MEAN_MOTION_DOT":-1.9e-7,"MEAN_MOTION_DDOT":0},{"OBJECT_NAME":"ONEWEB-0599","OBJECT_ID":"2023-004R","EPOCH":"2026-07-22T20:48:09.211392","CLASSIFICATION_TYPE":"U","MEAN_MOTION":13.17647824,"ECCENTRICITY":0.00019656,"INCLINATION":87.9153,"RA_OF_ASC_NODE":358.7667,"ARG_OF_PERICENTER":99.9574,"MEAN_ANOMALY":260.1779,"EPHEMERIS_TYPE":0,"NORAD_CAT_ID":55155,"ELEMENT_SET_NO":999,"REV_AT_EPOCH":17218,"BSTAR":0.00017202973,"MEAN_MOTION_DOT":8e-7,"MEAN_MOTION_DDOT":0},{"OBJECT_NAME":"ONEWEB-0614","OBJECT_ID":"2023-004S","EPOCH":"2026-07-22T11:32:02.103360","CLASSIFICATION_TYPE":"U","MEAN_MOTION":13.11415374,"ECCENTRICITY":0.00016647,"INCLINATION":87.8886,"RA_OF_ASC_NODE":14.0483,"ARG_OF_PERICENTER":85.9075,"MEAN_ANOMALY":274.2243,"EPHEMERIS_TYPE":0,"NORAD_CAT_ID":55156,"ELEMENT_SET_NO":999,"REV_AT_EPOCH":17046,"BSTAR":0.00048456957,"MEAN_MOTION_DOT":0.00000184,"MEAN_MOTION_DDOT":0},{"OBJECT_NAME":"ONEWEB-0616","OBJECT_ID":"2023-004T","EPOCH":"2026-07-22T21:48:54.053280","CLASSIFICATION_TYPE":"U","MEAN_MOTION":13.17648234,"ECCENTRICITY":0.00020983,"INCLINATION":87.9153,"RA_OF_ASC_NODE":358.7627,"ARG_OF_PERICENTER":120.3501,"MEAN_ANOMALY":239.7838,"EPHEMERIS_TYPE":0,"NORAD_CAT_ID":55157,"ELEMENT_SET_NO":999,"REV_AT_EPOCH":17240,"BSTAR":0.000057070669,"MEAN_MOTION_DOT":3.5e-7,"MEAN_MOTION_DDOT":0},{"OBJECT_NAME":"ONEWEB-0617","OBJECT_ID":"2023-004U","EPOCH":"2026-07-22T00:15:43.764480","CLASSIFICATION_TYPE":"U","MEAN_MOTION":13.11416989,"ECCENTRICITY":0.00017444,"INCLINATION":87.8894,"RA_OF_ASC_NODE":14.1349,"ARG_OF_PERICENTER":80.2301,"MEAN_ANOMALY":279.9023,"EPHEMERIS_TYPE":0,"NORAD_CAT_ID":55158,"ELEMENT_SET_NO":999,"REV_AT_EPOCH":17042,"BSTAR":0.0015297283,"MEAN_MOTION_DOT":0.00000555,"MEAN_MOTION_DDOT":0},{"OBJECT_NAME":"ONEWEB-0618","OBJECT_ID":"2023-004V","EPOCH":"2026-07-22T15:13:51.972384","CLASSIFICATION_TYPE":"U","MEAN_MOTION":15.13453978,"ECCENTRICITY":0.00135503,"INCLINATION":86.9106,"RA_OF_ASC_NODE":163.2417,"ARG_OF_PERICENTER":149.9729,"MEAN_ANOMALY":210.2291,"EPHEMERIS_TYPE":0,"NORAD_CAT_ID":55159,"ELEMENT_SET_NO":999,"REV_AT_EPOCH":18762,"BSTAR":0.00032628189,"MEAN_MOTION_DOT":0.00005875,"MEAN_MOTION_DDOT":0},{"OBJECT_NAME":"ONEWEB-0619","OBJECT_ID":"2023-004W","EPOCH":"2026-07-22T08:00:17.030016","CLASSIFICATION_TYPE":"U","MEAN_MOTION":13.17648502,"ECCENTRICITY":0.00014273,"INCLINATION":87.9166,"RA_OF_ASC_NODE":358.8606,"ARG_OF_PERICENTER":96.0871,"MEAN_ANOMALY":264.0423,"EPHEMERIS_TYPE":0,"NORAD_CAT_ID":55160,"ELEMENT_SET_NO":999,"REV_AT_EPOCH":17222,"BSTAR":0.000045676302,"MEAN_MOTION_DOT":3.1e-7,"MEAN_MOTION_DDOT":0},{"OBJECT_NAME":"ONEWEB-0620","OBJECT_ID":"2023-004X","EPOCH":"2026-07-22T22:06:49.511232","CLASSIFICATION_TYPE":"U","MEAN_MOTION":13.11418007,"ECCENTRICITY":0.00020651,"INCLINATION":87.8888,"RA_OF_ASC_NODE":13.9602,"ARG_OF_PERICENTER":88.9651,"MEAN_ANOMALY":271.1714,"EPHEMERIS_TYPE":0,"NORAD_CAT_ID":55161,"ELEMENT_SET_NO":999,"REV_AT_EPOCH":17051,"BSTAR":0.0014862829,"MEAN_MOTION_DOT":0.00000539,"MEAN_MOTION_DDOT":0},{"OBJECT_NAME":"ONEWEB-0621","OBJECT_ID":"2023-004Y","EPOCH":"2026-07-22T20:56:01.355424","CLASSIFICATION_TYPE":"U","MEAN_MOTION":13.11414539,"ECCENTRICITY":0.00016094,"INCLINATION":87.8892,"RA_OF_ASC_NODE":13.9623,"ARG_OF_PERICENTER":86.4843,"MEAN_ANOMALY":273.6469,"EPHEMERIS_TYPE":0,"NORAD_CAT_ID":55162,"ELEMENT_SET_NO":999,"REV_AT_EPOCH":17048,"BSTAR":-0.00077605475,"MEAN_MOTION_DOT":-0.00000262,"MEAN_MOTION_DDOT":0},{"OBJECT_NAME":"ONEWEB-0622","OBJECT_ID":"2023-004Z","EPOCH":"2026-07-22T21:03:20.552544","CLASSIFICATION_TYPE":"U","MEAN_MOTION":13.11414959,"ECCENTRICITY":0.00019193,"INCLINATION":87.8896,"RA_OF_ASC_NODE":13.9643,"ARG_OF_PERICENTER":69.7183,"MEAN_ANOMALY":290.4151,"EPHEMERIS_TYPE":0,"NORAD_CAT_ID":55163,"ELEMENT_SET_NO":999,"REV_AT_EPOCH":17047,"BSTAR":-0.0014029556,"MEAN_MOTION_DOT":-0.00000485,"MEAN_MOTION_DDOT":0},{"OBJECT_NAME":"ONEWEB-0623","OBJECT_ID":"2023-004AA","EPOCH":"2026-07-22T16:59:44.744064","CLASSIFICATION_TYPE":"U","MEAN_MOTION":13.17648638,"ECCENTRICITY":0.00013558,"INCLINATION":87.9152,"RA_OF_ASC_NODE":358.812,"ARG_OF_PERICENTER":71.8178,"MEAN_ANOMALY":288.3101,"EPHEMERIS_TYPE":0,"NORAD_CAT_ID":55164,"ELEMENT_SET_NO":999,"REV_AT_EPOCH":17226,"BSTAR":0.00014681249,"MEAN_MOTION_DOT":7e-7,"MEAN_MOTION_DDOT":0},{"OBJECT_NAME":"ONEWEB-0624","OBJECT_ID":"2023-004AB","EPOCH":"2026-07-22T18:49:39.462528","CLASSIFICATION_TYPE":"U","MEAN_MOTION":13.12927646,"ECCENTRICITY":0.00017372,"INCLINATION":87.8977,"RA_OF_ASC_NODE":343.5021,"ARG_OF_PERICENTER":95.0385,"MEAN_ANOMALY":265.0942,"EPHEMERIS_TYPE":0,"NORAD_CAT_ID":55165,"ELEMENT_SET_NO":999,"REV_AT_EPOCH":17274,"BSTAR":-0.00014082061,"MEAN_MOTION_DOT":-3.8e-7,"MEAN_MOTION_DDOT":0},{"OBJECT_NAME":"ONEWEB-0625","OBJECT_ID":"2023-004AC","EPOCH":"2026-07-22T20:23:51.482688","CLASSIFICATION_TYPE":"U","MEAN_MOTION":13.17648,"ECCENTRICITY":0.00017834,"INCLINATION":87.9154,"RA_OF_ASC_NODE":358.7805,"ARG_OF_PERICENTER":99.1519,"MEAN_ANOMALY":260.9814,"EPHEMERIS_TYPE":0,"NORAD_CAT_ID":55166,"ELEMENT_SET_NO":999,"REV_AT_EPOCH":17227,"BSTAR":-0.000097614305,"MEAN_MOTION_DOT":-2.5e-7,"MEAN_MOTION_DDOT":0},{"OBJECT_NAME":"ONEWEB-0626","OBJECT_ID":"2023-004AD","EPOCH":"2026-07-21T20:27:46.117440","CLASSIFICATION_TYPE":"U","MEAN_MOTION":13.17648258,"ECCENTRICITY":0.00021721,"INCLINATION":87.9155,"RA_OF_ASC_NODE":358.9781,"ARG_OF_PERICENTER":96.4607,"MEAN_ANOMALY":263.6771,"EPHEMERIS_TYPE":0,"NORAD_CAT_ID":55167,"ELEMENT_SET_NO":999,"REV_AT_EPOCH":17214,"BSTAR":-0.0001273632,"MEAN_MOTION_DOT":-3.7e-7,"MEAN_MOTION_DDOT":0},{"OBJECT_NAME":"ONEWEB-0627","OBJECT_ID":"2023-004AE","EPOCH":"2026-07-22T21:41:37.586400","CLASSIFICATION_TYPE":"U","MEAN_MOTION":13.17649431,"ECCENTRICITY":0.00014587,"INCLINATION":87.9158,"RA_OF_ASC_NODE":358.7697,"ARG_OF_PERICENTER":81.9953,"MEAN_ANOMALY":278.1344,"EPHEMERIS_TYPE":0,"NORAD_CAT_ID":55168,"ELEMENT_SET_NO":999,"REV_AT_EPOCH":17228,"BSTAR":0.00034375203,"MEAN_MOTION_DOT":0.00000146,"MEAN_MOTION_DDOT":0}]}
