{"epoch":1784799577,"count":18318,"objects":[{"id":"55153","name":"ONEWEB-0588","type":"PAYLOAD","l1":"1 55153U 23004P   26203.77018366 -.00000024  00000-0 -92576-4 0  9990","l2":"2 55153  87.9193 328.3925 0001984  84.1765 275.9593 13.18686449174386"},{"id":"55154","name":"ONEWEB-0598","type":"PAYLOAD","l1":"1 55154U 23004Q   26203.86714982 -.00000019  00000-0 -88332-4 0  9997","l2":"2 55154  87.8889  13.9637 0002529  94.5935 265.5482 13.11415605170571"},{"id":"55155","name":"ONEWEB-0599","type":"PAYLOAD","l1":"1 55155U 23004R   26203.86677328  .00000080  00000-0  17203-3 0  9994","l2":"2 55155  87.9153 358.7667 0001966  99.9574 260.1779 13.17647824172187"},{"id":"55156","name":"ONEWEB-0614","type":"PAYLOAD","l1":"1 55156U 23004S   26203.48057990  .00000184  00000-0  48457-3 0  9990","l2":"2 55156  87.8886  14.0483 0001665  85.9075 274.2243 13.11415374170463"},{"id":"55157","name":"ONEWEB-0616","type":"PAYLOAD","l1":"1 55157U 23004T   26203.90895895  .00000035  00000-0  57071-4 0  9990","l2":"2 55157  87.9153 358.7627 0002098 120.3501 239.7838 13.17648234172400"},{"id":"55158","name":"ONEWEB-0617","type":"PAYLOAD","l1":"1 55158U 23004U   26203.01092320  .00000555  00000-0  15297-2 0  9994","l2":"2 55158  87.8894  14.1349 0001744  80.2301 279.9023 13.11416989170421"},{"id":"55159","name":"ONEWEB-0618","type":"PAYLOAD","l1":"1 55159U 23004V   26203.63462931  .00005875  00000-0  32628-3 0  9990","l2":"2 55159  86.9106 163.2417 0013550 149.9729 210.2291 15.13453978187623"},{"id":"55160","name":"ONEWEB-0619","type":"PAYLOAD","l1":"1 55160U 23004W   26203.33353044  .00000031  00000-0  45676-4 0  9990","l2":"2 55160  87.9166 358.8606 0001427  96.0871 264.0423 13.17648502172229"},{"id":"55161","name":"ONEWEB-0620","type":"PAYLOAD","l1":"1 55161U 23004X   26203.92140638  .00000539  00000-0  14863-2 0  9994","l2":"2 55161  87.8888  13.9602 0002065  88.9651 271.1714 13.11418007170511"},{"id":"55162","name":"ONEWEB-0621","type":"PAYLOAD","l1":"1 55162U 23004Y   26203.87223791 -.00000262  00000-0 -77605-3 0  9990","l2":"2 55162  87.8892  13.9623 0001609  86.4843 273.6469 13.11414539170485"},{"id":"55163","name":"ONEWEB-0622","type":"PAYLOAD","l1":"1 55163U 23004Z   26203.87732121 -.00000485  00000-0 -14030-2 0  9992","l2":"2 55163  87.8896  13.9643 0001919  69.7183 290.4151 13.11414959170477"},{"id":"55164","name":"ONEWEB-0623","type":"PAYLOAD","l1":"1 55164U 23004AA  26203.70815676  .00000070  00000-0  14681-3 0  9993","l2":"2 55164  87.9152 358.8120 0001356  71.8178 288.3101 13.17648638172267"},{"id":"55165","name":"ONEWEB-0624","type":"PAYLOAD","l1":"1 55165U 23004AB  26203.78448452 -.00000038  00000-0 -14082-3 0  9997","l2":"2 55165  87.8977 343.5021 0001737  95.0385 265.0942 13.12927646172746"},{"id":"55166","name":"ONEWEB-0625","type":"PAYLOAD","l1":"1 55166U 23004AC  26203.84990142 -.00000025  00000-0 -97614-4 0  9992","l2":"2 55166  87.9154 358.7805 0001783  99.1519 260.9814 13.17648000172277"},{"id":"55167","name":"ONEWEB-0626","type":"PAYLOAD","l1":"1 55167U 23004AD  26202.85261710 -.00000037  00000-0 -12736-3 0  9999","l2":"2 55167  87.9155 358.9781 0002172  96.4607 263.6771 13.17648258172148"},{"id":"55168","name":"ONEWEB-0627","type":"PAYLOAD","l1":"1 55168U 23004AE  26203.90390725  .00000146  00000-0  34375-3 0  9998","l2":"2 55168  87.9158 358.7697 0001459  81.9953 278.1344 13.17649431172282"}]}